start=new Date('2022-07-13T00:00:00.000Z').valueOf();
sats=[{"APOAPSIS":"548.335","REV_AT_EPOCH":"9839","DECAY_DATE":null,"GP_ID":"208005609","CENTER_NAME":"EARTH","INCLINATION":"53.0561","EPHEMERIS_TYPE":"0","TLE_LINE1":"1 46573U 20070AT  22193.92006205  .00002285  00000-0  17224-3 0  9991","OBJECT_TYPE":"PAYLOAD","EPOCH":"2022-07-12T22:04:53.361120","PERIAPSIS":"546.085","MEAN_MOTION":"15.06401186","ELEMENT_SET_NO":"999","FILE":"3512591","OBJECT_NAME":"STARLINK-1650","MEAN_ELEMENT_THEORY":"SGP4","ARG_OF_PERICENTER":"62.1563","SITE":"AFETR","PERIOD":"95.592","MEAN_ANOMALY":"297.9590","COUNTRY_CODE":"US","MEAN_MOTION_DDOT":"0.0000000000000","REF_FRAME":"TEME","RA_OF_ASC_NODE":"38.1064","ECCENTRICITY":"0.00016250","MEAN_MOTION_DOT":"0.00002285","TLE_LINE2":"2 46573  53.0561  38.1064 0001625  62.1563 297.9590 15.06401186 98398","SEMIMAJOR_AXIS":"6925.345","CLASSIFICATION_TYPE":"U","LAUNCH_DATE":"2020-10-06","OBJECT_ID":"2020-070AT","NORAD_CAT_ID":"46573","RCS_SIZE":"LARGE","BSTAR":"0.00017224000000","TIME_SYSTEM":"UTC"},{"NORAD_CAT_ID":"46574","OBJECT_ID":"2020-070AU","RCS_SIZE":"LARGE","BSTAR":"0.00096317000000","TIME_SYSTEM":"UTC","PERIOD":"95.591","ARG_OF_PERICENTER":"73.4741","SITE":"AFETR","COUNTRY_CODE":"US","MEAN_ANOMALY":"286.6387","MEAN_MOTION_DDOT":"0.0000000000000","REF_FRAME":"TEME","RA_OF_ASC_NODE":"38.4882","MEAN_MOTION_DOT":"0.00014104","ECCENTRICITY":"0.00012680","CLASSIFICATION_TYPE":"U","SEMIMAJOR_AXIS":"6925.272","TLE_LINE2":"2 46574  53.0549  38.4882 0001268  73.4741 286.6387 15.06425058 98373","LAUNCH_DATE":"2020-10-06","EPOCH":"2022-07-12T20:09:28.269792","TLE_LINE1":"1 46574U 20070AU  22193.83991053  .00014104  00000-0  96317-3 0  9999","EPHEMERIS_TYPE":"0","OBJECT_TYPE":"PAYLOAD","PERIAPSIS":"546.259","MEAN_MOTION":"15.06425058","ELEMENT_SET_NO":"999","MEAN_ELEMENT_THEORY":"SGP4","FILE":"3512432","OBJECT_NAME":"STARLINK-1660","APOAPSIS":"548.015","DECAY_DATE":null,"REV_AT_EPOCH":"9837","GP_ID":"207997519","INCLINATION":"53.0549","CENTER_NAME":"EARTH"},{"NORAD_CAT_ID":"46575","OBJECT_ID":"2020-070AV","RCS_SIZE":"LARGE","TIME_SYSTEM":"UTC","BSTAR":"0.00049015000000","COUNTRY_CODE":"US","MEAN_ANOMALY":"291.0204","PERIOD":"95.591","ARG_OF_PERICENTER":"69.0939","SITE":"AFETR","MEAN_MOTION_DDOT":"0.0000000000000","REF_FRAME":"TEME","MEAN_MOTION_DOT":"0.00007031","ECCENTRICITY":"0.00014420","RA_OF_ASC_NODE":"13.5385","LAUNCH_DATE":"2020-10-06","SEMIMAJOR_AXIS":"6925.289","CLASSIFICATION_TYPE":"U","TLE_LINE2":"2 46575  53.0554  13.5385 0001442  69.0939 291.0204 15.06419562 98715","PERIAPSIS":"546.155","EPOCH":"2022-07-12T19:54:13.234176","TLE_LINE1":"1 46575U 20070AV  22193.82931984  .00007031  00000-0  49015-3 0  9990","OBJECT_TYPE":"PAYLOAD","EPHEMERIS_TYPE":"0","ELEMENT_SET_NO":"999","MEAN_MOTION":"15.06419562","MEAN_ELEMENT_THEORY":"SGP4","FILE":"3512432","OBJECT_NAME":"STARLINK-1675","DECAY_DATE":null,"REV_AT_EPOCH":"9871","APOAPSIS":"548.152","GP_ID":"207995785","INCLINATION":"53.0554","CENTER_NAME":"EARTH"},{"OBJECT_ID":"2020-070AW","NORAD_CAT_ID":"46576","TIME_SYSTEM":"UTC","BSTAR":"0.00050870000000","RCS_SIZE":"LARGE","MEAN_MOTION_DDOT":"0.0000000000000","REF_FRAME":"TEME","MEAN_ANOMALY":"282.5529","COUNTRY_CODE":"US","SITE":"AFETR","ARG_OF_PERICENTER":"77.5627","PERIOD":"95.591","LAUNCH_DATE":"2020-10-06","TLE_LINE2":"2 46576  53.0543  38.2114 0001494  77.5627 282.5529 15.06420360 98389","CLASSIFICATION_TYPE":"U","SEMIMAJOR_AXIS":"6925.286","ECCENTRICITY":"0.00014940","MEAN_MOTION_DOT":"0.00007308","RA_OF_ASC_NODE":"38.2114","ELEMENT_SET_NO":"999","MEAN_MOTION":"15.06420360","PERIAPSIS":"546.117","TLE_LINE1":"1 46576U 20070AW  22193.89888954  .00007308  00000-0  50870-3 0  9994","OBJECT_TYPE":"PAYLOAD","EPHEMERIS_TYPE":"0","EPOCH":"2022-07-12T21:34:24.056256","OBJECT_NAME":"STARLINK-1677","FILE":"3512594","MEAN_ELEMENT_THEORY":"SGP4","GP_ID":"208006162","REV_AT_EPOCH":"9838","DECAY_DATE":null,"APOAPSIS":"548.186","INCLINATION":"53.0543","CENTER_NAME":"EARTH"},{"APOAPSIS":"548.222","REV_AT_EPOCH":"9837","DECAY_DATE":null,"GP_ID":"208006467","INCLINATION":"53.0537","CENTER_NAME":"EARTH","TLE_LINE1":"1 46577U 20070AX  22193.86203824  .00011819  00000-0  81037-3 0  9990","EPHEMERIS_TYPE":"0","OBJECT_TYPE":"PAYLOAD","EPOCH":"2022-07-12T20:41:20.103936","PERIAPSIS":"546.023","MEAN_MOTION":"15.06429749","ELEMENT_SET_NO":"999","FILE":"3512596","OBJECT_NAME":"STARLINK-1682","MEAN_ELEMENT_THEORY":"SGP4","SITE":"AFETR","ARG_OF_PERICENTER":"71.7035","PERIOD":"95.590","MEAN_ANOMALY":"288.4126","COUNTRY_CODE":"US","MEAN_MOTION_DDOT":"0.0000000000000","REF_FRAME":"TEME","RA_OF_ASC_NODE":"38.3839","ECCENTRICITY":"0.00015880","MEAN_MOTION_DOT":"0.00011819","TLE_LINE2":"2 46577  53.0537  38.3839 0001588  71.7035 288.4126 15.06429749 98378","SEMIMAJOR_AXIS":"6925.257","CLASSIFICATION_TYPE":"U","LAUNCH_DATE":"2020-10-06","OBJECT_ID":"2020-070AX","NORAD_CAT_ID":"46577","RCS_SIZE":"LARGE","BSTAR":"0.00081037000000","TIME_SYSTEM":"UTC"},{"INCLINATION":"53.0552","CENTER_NAME":"EARTH","GP_ID":"207997521","APOAPSIS":"548.149","REV_AT_EPOCH":"9858","DECAY_DATE":null,"FILE":"3512432","OBJECT_NAME":"STARLINK-1683","MEAN_ELEMENT_THEORY":"SGP4","MEAN_MOTION":"15.06421521","ELEMENT_SET_NO":"999","TLE_LINE1":"1 46578U 20070AY  22193.84315227  .00007948  00000-0  55155-3 0  9990","EPHEMERIS_TYPE":"0","OBJECT_TYPE":"PAYLOAD","EPOCH":"2022-07-12T20:14:08.356128","PERIAPSIS":"546.146","TLE_LINE2":"2 46578  53.0552  23.5221 0001446  81.3113 278.8039 15.06421521 98583","CLASSIFICATION_TYPE":"U","SEMIMAJOR_AXIS":"6925.283","LAUNCH_DATE":"2020-10-06","RA_OF_ASC_NODE":"23.5221","ECCENTRICITY":"0.00014460","MEAN_MOTION_DOT":"0.00007948","MEAN_MOTION_DDOT":"0.0000000000000","REF_FRAME":"TEME","SITE":"AFETR","ARG_OF_PERICENTER":"81.3113","PERIOD":"95.591","MEAN_ANOMALY":"278.8039","COUNTRY_CODE":"US","BSTAR":"0.00055155000000","TIME_SYSTEM":"UTC","RCS_SIZE":"LARGE","OBJECT_ID":"2020-070AY","NORAD_CAT_ID":"46578"},{"GP_ID":"208006515","REV_AT_EPOCH":"9838","DECAY_DATE":null,"APOAPSIS":"548.051","INCLINATION":"53.0550","CENTER_NAME":"EARTH","ELEMENT_SET_NO":"999","MEAN_MOTION":"15.06409063","PERIAPSIS":"546.321","TLE_LINE1":"1 46579U 20070AZ  22194.04632933  .00001121  00000-0  94144-4 0  9999","EPHEMERIS_TYPE":"0","OBJECT_TYPE":"PAYLOAD","EPOCH":"2022-07-13T01:06:42.854112","FILE":"3512598","OBJECT_NAME":"STARLINK-1705","MEAN_ELEMENT_THEORY":"SGP4","MEAN_MOTION_DDOT":"0.0000000000000","REF_FRAME":"TEME","MEAN_ANOMALY":"280.4805","COUNTRY_CODE":"US","ARG_OF_PERICENTER":"79.6324","SITE":"AFETR","PERIOD":"95.592","LAUNCH_DATE":"2020-10-06","TLE_LINE2":"2 46579  53.0550  37.5547 0001249  79.6324 280.4805 15.06409063 98388","CLASSIFICATION_TYPE":"U","SEMIMAJOR_AXIS":"6925.321","ECCENTRICITY":"0.00012490","MEAN_MOTION_DOT":"0.00001121","RA_OF_ASC_NODE":"37.5547","OBJECT_ID":"2020-070AZ","NORAD_CAT_ID":"46579","TIME_SYSTEM":"UTC","BSTAR":"0.00009414400000","RCS_SIZE":"LARGE"},{"BSTAR":"0.00014373000000","TIME_SYSTEM":"UTC","RCS_SIZE":"LARGE","OBJECT_ID":"2020-070BA","NORAD_CAT_ID":"46580","TLE_LINE2":"2 46580  53.0549  38.5437 0001550  71.4302 288.6856 15.06406081 98370","SEMIMAJOR_AXIS":"6925.330","CLASSIFICATION_TYPE":"U","LAUNCH_DATE":"2020-10-06","RA_OF_ASC_NODE":"38.5437","ECCENTRICITY":"0.00015500","MEAN_MOTION_DOT":"0.00001860","MEAN_MOTION_DDOT":"0.0000000000000","REF_FRAME":"TEME","ARG_OF_PERICENTER":"71.4302","SITE":"AFETR","PERIOD":"95.592","MEAN_ANOMALY":"288.6856","COUNTRY_CODE":"US","FILE":"3512432","OBJECT_NAME":"STARLINK-1708","MEAN_ELEMENT_THEORY":"SGP4","MEAN_MOTION":"15.06406081","ELEMENT_SET_NO":"999","TLE_LINE1":"1 46580U 20070BA  22193.82516757  .00001860  00000-0  14373-3 0  9996","OBJECT_TYPE":"PAYLOAD","EPHEMERIS_TYPE":"0","EPOCH":"2022-07-12T19:48:14.478048","PERIAPSIS":"546.121","INCLINATION":"53.0549","CENTER_NAME":"EARTH","GP_ID":"207997035","APOAPSIS":"548.268","REV_AT_EPOCH":"9837","DECAY_DATE":null},{"MEAN_ELEMENT_THEORY":"SGP4","FILE":"3512432","OBJECT_NAME":"STARLINK-1712","PERIAPSIS":"546.200","EPOCH":"2022-07-12T20:34:01.694784","TLE_LINE1":"1 46581U 20070BB  22193.85696406  .00011700  00000-0  80233-3 0  9992","OBJECT_TYPE":"PAYLOAD","EPHEMERIS_TYPE":"0","ELEMENT_SET_NO":"999","MEAN_MOTION":"15.06433277","INCLINATION":"53.0535","CENTER_NAME":"EARTH","DECAY_DATE":null,"REV_AT_EPOCH":"9844","APOAPSIS":"548.024","GP_ID":"207998539","RCS_SIZE":"LARGE","TIME_SYSTEM":"UTC","BSTAR":"0.00080233000000","NORAD_CAT_ID":"46581","OBJECT_ID":"2020-070BB","MEAN_MOTION_DOT":"0.00011700","ECCENTRICITY":"0.00013170","RA_OF_ASC_NODE":"33.4205","LAUNCH_DATE":"2020-10-06","CLASSIFICATION_TYPE":"U","SEMIMAJOR_AXIS":"6925.247","TLE_LINE2":"2 46581  53.0535  33.4205 0001317  78.5471 281.5666 15.06433277 98445","COUNTRY_CODE":"US","MEAN_ANOMALY":"281.5666","PERIOD":"95.590","ARG_OF_PERICENTER":"78.5471","SITE":"AFETR","REF_FRAME":"TEME","MEAN_MOTION_DDOT":"0.0000000000000"},{"RCS_SIZE":"LARGE","TIME_SYSTEM":"UTC","BSTAR":"0.00048703000000","OBJECT_ID":"2020-070BC","NORAD_CAT_ID":"46582","ECCENTRICITY":"0.00014370","MEAN_MOTION_DOT":"0.00006984","RA_OF_ASC_NODE":"32.8871","LAUNCH_DATE":"2020-10-06","TLE_LINE2":"2 46582  53.0541  32.8871 0001437  86.9062 273.2091 15.06420766 98468","SEMIMAJOR_AXIS":"6925.285","CLASSIFICATION_TYPE":"U","MEAN_ANOMALY":"273.2091","COUNTRY_CODE":"US","ARG_OF_PERICENTER":"86.9062","SITE":"AFETR","PERIOD":"95.591","REF_FRAME":"TEME","MEAN_MOTION_DDOT":"0.0000000000000","OBJECT_NAME":"STARLINK-1728","FILE":"3512599","MEAN_ELEMENT_THEORY":"SGP4","PERIAPSIS":"546.155","TLE_LINE1":"1 46582U 20070BC  22193.97492039  .00006984  00000-0  48703-3 0  9996","EPHEMERIS_TYPE":"0","OBJECT_TYPE":"PAYLOAD","EPOCH":"2022-07-12T23:23:53.121696","ELEMENT_SET_NO":"999","MEAN_MOTION":"15.06420766","INCLINATION":"53.0541","CENTER_NAME":"EARTH","REV_AT_EPOCH":"9846","DECAY_DATE":null,"APOAPSIS":"548.145","GP_ID":"208006525"}];
